#aV2023  7 31  0  0  0.00000000     288 DD+AD WGS84 FIT  NGA
## 2273  86400.00000000   300.00000000 60156 0.0000000000000
+   32     1  2  3  4  5  6  7  8  9 10 11 12 13 14 15 16 17
+         18 19 20 21 22 23 24 25 26 27 28 29 30 31 32  0  0
+          0  0  0  0  0  0  0  0  0  0  0  0  0  0  0  0  0
+          0  0  0  0  0  0  0  0  0  0  0  0  0  0  0  0  0
+          0  0  0  0  0  0  0  0  0  0  0  0  0  0  0  0  0
++         2  2  2  2  2  2  2  2  2  2  2  2  2  2  2  2  2
++         2  2  2  2  2  2  2  2  2  2  2  2  2  2  2  0  0
++         0  0  0  0  0  0  0  0  0  0  0  0  0  0  0  0  0
++         0  0  0  0  0  0  0  0  0  0  0  0  0  0  0  0  0
++         0  0  0  0  0  0  0  0  0  0  0  0  0  0  0  0  0
%c cc cc ccc ccc cccc cccc cccc cccc ccccc ccccc ccccc ccccc
%c cc cc ccc ccc cccc cccc cccc cccc ccccc ccccc ccccc ccccc
%f  0.0000000  0.000000000  0.00000000000  0.000000000000000
%f  0.0000000  0.000000000  0.00000000000  0.000000000000000
%i    0    0    0    0      0      0      0      0         0
%i    0    0    0    0      0      0      0      0         0
/*      NGA, ST. LOUIS,MO.                                  
/*   EPHEMERIS COMPUTED FROM 2 DAYS OF DATA                 
/*   EPOCHA v8 SMOOTHER                                     
/*   G2139 IERS2010 SATIGS SATAPC                           
*  2023  7 31 10 25  0.00000000
P  1  13354.560833  -8694.856263  20831.634611    170.497071                    
V  1   1841.106295  27205.848758  10337.880005     -0.016290                    
P  2  15197.185016  -1832.996608  22209.318776   -570.520347                    
V  2   3752.786442  26715.662857   -215.268201      0.040115                    
P  3  23091.317802 -12587.954647   3087.684970   -208.973567                    
V  3  -2180.221483   4168.022264  31931.603908      0.170797                    
P  4  19222.677332  -3703.696267 -17993.872040    111.584890                    
V  4  19285.372167  12286.510385  17946.574664      0.111684                    
P  5 -20708.340967    602.640439 -16864.354030   -136.987768                    
V  5  16116.699496 -13568.826096 -20391.982273     -0.014541                    
P  6  -5511.847583 -25057.556849  -6621.603886    572.202474                    
V  6   1518.179292  -8562.876244  30951.493504     -0.044077                    
P  7   6569.891156 -22830.007343 -10895.647140    109.332408                    
V  7   4001.291469  14538.069523 -27378.064453     -0.109314                    
P  8  24747.424133   4663.537397   8974.202594   -134.914886                    
V  8   9301.409714   6974.386507 -28643.993272     -0.017941                    
P  9  10647.435831 -11658.711097 -21438.982147    -98.650580                    
V  9  24207.923850  12080.881584   5428.590338      0.095780                    
P 10  -1835.713923  17346.719930  20108.745026    -47.365236                    
V 10 -21633.575261  12940.444903 -13563.822359     -0.015167                    
P 11 -12553.421904 -14966.778579 -18006.332730   -299.719924                    
V 11   1350.640015 -22864.059599  18007.825324     -0.167874                    
P 12 -24229.898901   8668.063180   6128.959300   -407.271692                    
V 12   5800.610683  -6335.277805  30601.040808     -0.045531                    
P 13 -22867.969300 -13361.185695   2999.521505    554.158706                    
V 13  -1967.835593  -4198.046671 -31528.757526      0.048596                    
P 14   5506.548484 -18600.671472  18090.859022    139.417759                    
V 14  20607.198881 -10447.712573 -17194.319202      0.118468                    
P 15 -24927.058767  -1412.190547   8947.195320     63.159413                    
V 15 -10317.682435  -6911.297180 -28098.414027      0.036019                    
P 16  18331.045236   5145.714353 -19006.215018   -474.234602                    
V 16 -20077.526935  11931.774280 -15956.141336      0.047097                    
P 17  -5966.284475 -18249.224250  18735.997652    721.981099                    
V 17  20398.448652  10504.020959  17229.593364      0.006677                    
P 18  -5284.452433  24289.244057  -9114.164905   -365.603947                    
V 18  -2755.193944 -11511.471048 -29247.088268     -0.137743                    
P 19 -13605.345310 -19050.155268  12642.016345    351.265569                    
V 19  14635.954925   7292.661079  25979.760192      0.051549                    
P 20 -13802.612934  -7906.784143 -21210.317396    419.749953                    
V 20  19385.699700 -18926.919957  -5736.776446     -0.020323                    
P 21  15740.981007   2046.048834  21916.501748    151.444753                    
V 21   3801.697846  26206.055131  -4429.870861     -0.005367                    
P 22  16023.379409  18616.558006  10755.478228    520.492653                    
V 22 -12149.634424  -4927.900540  27657.320112      0.052919                    
P 23 -13807.382664  19313.554921  11739.101836     49.435376                    
V 23 -13475.628602   6786.789008 -27184.393447      0.044456                    
P 24 -15158.689711   4001.970103  21050.666965   -275.168086                    
V 24  -4485.660591 -27365.223039   2356.556523     -0.118825                    
P 25 -18932.196599  17624.222055  -5689.083184    459.405960                    
V 25  -7480.876522   1226.055358  30623.869289      0.022586                    
P 26   9238.238939  12905.604217 -21409.670316    234.674606                    
V 26 -21662.451836  16162.372616    744.073649     -0.013231                    
P 27  23178.952050  13280.633248  -2205.659410    -13.460928                    
V 27  -3206.198425    912.154545 -31462.960346     -0.069744                    
P 28   5543.945676  25571.120334  -4594.948925     79.789725                    
V 28  -2206.968332   6032.897080  31046.048135     -0.024597                    
P 29 -12219.722302   9668.343361 -21574.577802   -606.794769                    
V 29 -23067.372966 -14439.867876   6511.431294     -0.008441                    
P 30    285.775880 -26319.900710  -2128.469578   -500.182814                    
V 30   3985.488494   2686.776445 -31187.630159      0.029421                    
P 31  10969.493620  19217.762969 -14549.769201   -221.030339                    
V 31  -1864.270772  18430.401725  23639.798077     -0.006860                    
P 32  10403.844912  18140.937994  16673.930330   -531.789976                    
V 32 -19339.814346  -7699.544013  20474.857863     -0.072280                    
EOF
